OBJECT_NAME,OBJECT_ID,EPOCH,MEAN_MOTION,ECCENTRICITY,INCLINATION,RA_OF_ASC_NODE,ARG_OF_PERICENTER,MEAN_ANOMALY,EPHEMERIS_TYPE,CLASSIFICATION_TYPE,NORAD_CAT_ID,ELEMENT_SET_NO,REV_AT_EPOCH,BSTAR,MEAN_MOTION_DOT,MEAN_MOTION_DDOT
ONEWEB-0211,2021-045A,2026-07-02T14:57:05.517792,13.16196906,.00024174,87.9000,256.0038,114.4874,245.6509,0,U,48767,999,24647,-.16888628E-3,-.51E-6,0
ONEWEB-0223,2021-045B,2026-07-02T11:32:20.148000,13.15548190,.00020974,87.9004,256.1446,111.2245,248.9110,0,U,48768,999,24641,-.56246335E-4,-.8E-7,0
ONEWEB-0230,2021-045C,2026-07-02T10:51:16.108128,13.15547342,.00019351,87.8998,256.1625,95.2997,264.8354,0,U,48769,999,24667,-.49838808E-3,-.175E-5,0
ONEWEB-0237,2021-045D,2026-07-02T10:35:17.399040,13.15547356,.00023573,87.8997,256.1665,102.3865,257.7529,0,U,48770,999,24639,.28566863E-3,.12E-5,0
ONEWEB-0235,2021-045E,2026-07-02T11:48:18.541728,13.15549560,.00019389,87.9006,256.1436,112.2182,247.9154,0,U,48771,999,24639,.52997904E-3,.212E-5,0
ONEWEB-0242,2021-045F,2026-07-02T11:39:11.162304,13.15547834,.00018664,87.9004,256.1418,102.5787,257.5552,0,U,48772,999,24643,.28519188E-3,.12E-5,0
ONEWEB-0241,2021-045G,2026-07-02T14:59:57.809760,13.15550325,.00022045,87.8993,256.1307,110.4177,249.7190,0,U,48773,999,24636,-.21525339E-3,-.68E-6,0
ONEWEB-0243,2021-045H,2026-07-02T04:48:29.414880,13.15539615,.00014908,87.8987,256.2275,107.9934,252.1359,0,U,48774,999,24633,.49789462E-2,.1887E-4,0
ONEWEB-0222,2021-045J,2026-07-02T11:42:35.265024,13.15549678,.00020713,87.9004,256.1392,106.3533,253.7825,0,U,48775,999,24641,.71197885E-4,.4E-6,0
ONEWEB-0244,2021-045K,2026-07-02T06:51:41.120640,13.15547749,.00019228,87.9009,256.1747,103.1196,257.0149,0,U,48776,999,24695,-.7020207E-4,-.14E-6,0
ONEWEB-0247,2021-045L,2026-07-02T04:57:36.295776,13.15548503,.00015798,87.8995,256.2208,122.1340,237.9944,0,U,48777,999,24638,.33286903E-3,.138E-5,0
ONEWEB-0245,2021-045M,2026-07-02T04:50:45.106080,13.15549165,.00021183,87.9002,256.2023,103.8680,256.2686,0,U,48778,999,24635,.49341769E-3,.199E-5,0
ONEWEB-0229,2021-045N,2026-07-02T04:43:54.164352,13.15548366,.00018941,87.9007,256.2010,100.9628,259.1715,0,U,48779,999,24638,.16537558E-3,.75E-6,0
ONEWEB-0228,2021-045P,2026-07-02T11:00:35.552448,13.15548618,.00019798,87.9012,256.1425,101.9154,258.2198,0,U,48780,999,24633,-.93091716E-4,-.22E-6,0
ONEWEB-0232,2021-045Q,2026-07-02T04:55:19.121952,13.15547918,.00021169,87.9008,256.1936,100.4404,259.6965,0,U,48781,999,24662,.45853966E-3,.185E-5,0
ONEWEB-0231,2021-045R,2026-07-02T11:41:27.271680,13.15547740,.00020263,87.9002,256.1497,106.9691,253.1661,0,U,48782,999,24635,-.33406975E-3,-.113E-5,0
ONEWEB-0234,2021-045S,2026-07-02T10:46:29.824320,13.15547119,.00028715,87.9005,256.1391,97.3061,262.8396,0,U,48783,999,24648,-.45726122E-3,-.159E-5,0
ONEWEB-0238,2021-045T,2026-07-02T10:46:53.141088,13.15552311,.0002484,87.9012,256.1338,97.2041,262.9371,0,U,48784,999,24638,.10045905E-2,.391E-5,0
ONEWEB-0240,2021-045U,2026-07-02T14:56:33.030528,13.15548815,.00021943,87.9008,256.1100,107.8298,252.3071,0,U,48785,999,24643,-.29578989E-3,-.99E-6,0
ONEWEB-0246,2021-045V,2026-07-02T14:48:33.312672,13.15547190,.00019309,87.9005,256.1150,100.7827,259.3521,0,U,48786,999,24630,-.25481822E-3,-.83E-6,0
ONEWEB-0210,2021-045W,2026-07-02T10:33:00.360864,13.15547580,.00013241,87.9009,256.1477,117.2998,242.8267,0,U,48787,999,24632,.11832149E-3,.57E-6,0
ONEWEB-0214,2021-045X,2026-07-02T10:45:32.327712,13.15549922,.00016726,87.9008,256.1427,95.5528,264.5793,0,U,48788,999,24629,-.14456591E-3,-.42E-6,0
ONEWEB-0221,2021-045Y,2026-07-02T10:55:49.828512,13.15548220,.00019917,87.9006,256.1500,105.3710,254.7641,0,U,48789,999,24638,-.43509503E-3,-.151E-5,0
ONEWEB-0213,2021-045Z,2026-07-02T10:39:51.629184,13.15547949,.00018972,87.9006,256.1552,107.0892,253.0446,0,U,48790,999,24644,.7235118E-4,.4E-6,0
ONEWEB-0212,2021-045AA,2026-07-02T11:56:15.832608,13.15546454,.00020627,87.9007,256.1390,99.4466,260.6897,0,U,48791,999,24644,.30730415E-3,.129E-5,0
ONEWEB-0227,2021-045AB,2026-07-02T11:55:08.857920,13.15548126,.00020398,87.8984,256.1392,100.9260,259.2100,0,U,48792,999,24639,.80938413E-3,.318E-5,0
ONEWEB-0226,2021-045AC,2026-07-02T11:46:00.960960,13.15547650,.0001826,87.8998,256.1453,104.7244,255.4088,0,U,48793,999,24636,.3730124E-3,.153E-5,0
ONEWEB-0224,2021-045AD,2026-07-02T10:53:33.224064,13.15547562,.00028228,87.8997,256.1858,109.7013,250.4422,0,U,48794,999,24628,-.28632274E-3,-.95E-6,0
ONEWEB-0233,2021-045AE,2026-07-02T12:49:42.830400,13.15547867,.00020744,87.8997,256.1771,108.0682,252.0675,0,U,48795,999,24631,-.19535532E-3,-.61E-6,0
ONEWEB-0190,2021-045AF,2026-07-02T10:42:08.384832,13.15548411,.00018222,87.9002,256.1574,119.3949,240.7363,0,U,48796,999,24637,.1310556E-4,.18E-6,0
