ONEWEB-0211             
1 48767U 21045A   26183.62298053 -.00000051  00000+0 -16889-3 0  9991
2 48767  87.9000 256.0038 0002417 114.4874 245.6509 13.16196906246471
ONEWEB-0223             
1 48768U 21045B   26183.48078875 -.00000008  00000+0 -56246-4 0  9998
2 48768  87.9004 256.1446 0002097 111.2245 248.9110 13.15548190246414
ONEWEB-0230             
1 48769U 21045C   26183.45226977 -.00000175  00000+0 -49839-3 0  9998
2 48769  87.8998 256.1625 0001935  95.2997 264.8354 13.15547342246673
ONEWEB-0237             
1 48770U 21045D   26183.44117360  .00000120  00000+0  28567-3 0  9997
2 48770  87.8997 256.1665 0002357 102.3865 257.7529 13.15547356246390
ONEWEB-0235             
1 48771U 21045E   26183.49188127  .00000212  00000+0  52998-3 0  9999
2 48771  87.9006 256.1436 0001938 112.2182 247.9154 13.15549560246399
ONEWEB-0242             
1 48772U 21045F   26183.48554586  .00000120  00000+0  28519-3 0  9995
2 48772  87.9004 256.1418 0001866 102.5787 257.5552 13.15547834246437
ONEWEB-0241             
1 48773U 21045G   26183.62497465 -.00000068  00000+0 -21525-3 0  9997
2 48773  87.8993 256.1307 0002204 110.4177 249.7190 13.15550325246361
ONEWEB-0243             
1 48774U 21045H   26183.20034045  .00001887  00000+0  49789-2 0  9992
2 48774  87.8987 256.2275 0001490 107.9934 252.1359 13.15539615246339
ONEWEB-0222             
1 48775U 21045J   26183.48790816  .00000040  00000+0  71198-4 0  9999
2 48775  87.9004 256.1392 0002071 106.3533 253.7825 13.15549678246418
ONEWEB-0244             
1 48776U 21045K   26183.28589260 -.00000014  00000+0 -70202-4 0  9995
2 48776  87.9009 256.1747 0001922 103.1196 257.0149 13.15547749246954
ONEWEB-0247             
1 48777U 21045L   26183.20667009  .00000138  00000+0  33287-3 0  9992
2 48777  87.8995 256.2208 0001579 122.1340 237.9944 13.15548503246387
ONEWEB-0245             
1 48778U 21045M   26183.20191095  .00000199  00000+0  49342-3 0  9996
2 48778  87.9002 256.2023 0002118 103.8680 256.2686 13.15549165246355
ONEWEB-0229             
1 48779U 21045N   26183.19715468  .00000075  00000+0  16538-3 0  9995
2 48779  87.9007 256.2010 0001894 100.9628 259.1715 13.15548366246387
ONEWEB-0228             
1 48780U 21045P   26183.45874482 -.00000022  00000+0 -93092-4 0  9993
2 48780  87.9012 256.1425 0001979 101.9154 258.2198 13.15548618246333
ONEWEB-0232             
1 48781U 21045Q   26183.20508243  .00000185  00000+0  45854-3 0  9996
2 48781  87.9008 256.1936 0002116 100.4404 259.6965 13.15547918246623
ONEWEB-0231             
1 48782U 21045R   26183.48712120 -.00000113  00000+0 -33407-3 0  9992
2 48782  87.9002 256.1497 0002026 106.9691 253.1661 13.15547740246354
ONEWEB-0234             
1 48783U 21045S   26183.44895630 -.00000159  00000+0 -45726-3 0  9994
2 48783  87.9005 256.1391 0002871  97.3061 262.8396 13.15547119246489
ONEWEB-0238             
1 48784U 21045T   26183.44922617  .00000391  00000+0  10046-2 0  9993
2 48784  87.9012 256.1338 0002484  97.2041 262.9371 13.15552311246389
ONEWEB-0240             
1 48785U 21045U   26183.62260452 -.00000099  00000+0 -29579-3 0  9995
2 48785  87.9008 256.1100 0002194 107.8298 252.3071 13.15548815246432
ONEWEB-0246             
1 48786U 21045V   26183.61705223 -.00000083  00000+0 -25482-3 0  9997
2 48786  87.9005 256.1150 0001930 100.7827 259.3521 13.15547190246300
ONEWEB-0210             
1 48787U 21045W   26183.43958751  .00000057  00000+0  11832-3 0  9997
2 48787  87.9009 256.1477 0001324 117.2998 242.8267 13.15547580246325
ONEWEB-0214             
1 48788U 21045X   26183.44829083 -.00000042  00000+0 -14457-3 0  9996
2 48788  87.9008 256.1427 0001672  95.5528 264.5793 13.15549922246296
ONEWEB-0221             
1 48789U 21045Y   26183.45543783 -.00000151  00000+0 -43510-3 0  9991
2 48789  87.9006 256.1500 0001991 105.3710 254.7641 13.15548220246387
ONEWEB-0213             
1 48790U 21045Z   26183.44434756  .00000040  00000+0  72351-4 0  9992
2 48790  87.9006 256.1552 0001897 107.0892 253.0446 13.15547949246440
ONEWEB-0212             
1 48791U 21045AA  26183.49740547  .00000129  00000+0  30730-3 0  9998
2 48791  87.9007 256.1390 0002062  99.4466 260.6897 13.15546454246442
ONEWEB-0227             
1 48792U 21045AB  26183.49663030  .00000318  00000+0  80938-3 0  9995
2 48792  87.8984 256.1392 0002039 100.9260 259.2100 13.15548126246395
ONEWEB-0226             
1 48793U 21045AC  26183.49028890  .00000153  00000+0  37301-3 0  9998
2 48793  87.8998 256.1453 0001826 104.7244 255.4088 13.15547650246367
ONEWEB-0224             
1 48794U 21045AD  26183.45385676 -.00000095  00000+0 -28632-3 0  9997
2 48794  87.8997 256.1858 0002822 109.7013 250.4422 13.15547562246282
ONEWEB-0233             
1 48795U 21045AE  26183.53452350 -.00000061  00000+0 -19536-3 0  9997
2 48795  87.8997 256.1771 0002074 108.0682 252.0675 13.15547867246310
ONEWEB-0190             
1 48796U 21045AF  26183.44593038  .00000018  00000+0  13106-4 0  9995
2 48796  87.9002 256.1574 0001822 119.3949 240.7363 13.15548411246371
